STARLINK-35134          
1 65641U 25210V   26062.74139192  .00031517  00000+0  10713-2 0  9994
2 65641  53.1607 334.4765 0000810 107.6638 252.4452 15.30211989 26829
STARLINK-35109          
1 65642U 25210W   26062.73505979  .00033429  00000+0  11350-2 0  9996
2 65642  53.1610 334.4349 0001355 117.1250 242.9889 15.30221743 26820
STARLINK-35062          
1 65643U 25210X   26062.73402726  .00025512  00000+0  87106-3 0  9990
2 65643  53.1615 334.4286 0001104  83.1856 276.9270 15.30181066 26826
STARLINK-35141          
1 65644U 25210Y   26062.72461849  .00032766  00000+0  11126-2 0  9998
2 65644  53.1599 335.0786 0001067 108.0362 252.0756 15.30228304 26817
STARLINK-35237          
1 65645U 25210Z   26062.72778956  .00032752  00000+0  11126-2 0  9994
2 65645  53.1599 335.0993 0001346  93.7282 266.3872 15.30212636 26817
STARLINK-35183          
1 65646U 25210AA  26062.78360245  .00033771  00000+0  11463-2 0  9995
2 65646  53.1604 334.7354 0001222  97.1097 263.0043 15.30223807 26824
STARLINK-35202          
1 65647U 25210AB  26062.05986606  .00025543  00000+0  87132-3 0  9996
2 65647  53.1605 338.0370 0000752 111.2360 248.8721 15.30209755 26717
STARLINK-34868          
1 65648U 25210AC  26062.76988592  .00041051  00000+0  13894-2 0  9996
2 65648  53.1606 334.6465 0001068  85.9954 274.1169 15.30226730 26825
STARLINK-35079          
1 65649U 25210AD  26062.18839998  .00036408  00000+0  12368-2 0  9993
2 65649  53.1605 337.4176 0001936  26.4906 333.6193 15.30160499 26733
STARLINK-35328          
1 65652U 25211A   26062.67733343  .00026252  00000+0  18161-2 0  9992
2 65652  97.6024 108.0818 0000559  77.0606 283.0683 15.05665482 26139
STARLINK-34210          
1 65653U 25211B   26062.67177796  .00002317  00000+0  16472-3 0  9997
2 65653  97.6025 108.0901 0000835  92.2072 267.9251 15.05652234 26130
STARLINK-35227          
1 65654U 25211C   26062.66626175  .00009659  00000+0  67263-3 0  9997
2 65654  97.6024 108.0985 0001037  96.2018 263.9327 15.05653127 26133
STARLINK-35240          
1 65655U 25211D   26062.87392375  .00009274  00000+0  64607-3 0  9995
2 65655  97.6025 108.2830 0000894  84.7146 275.4183 15.05652538 26166
STARLINK-35344          
1 65656U 25211E   26062.66900910  .00001980  00000+0  14137-3 0  9992
2 65656  97.6020 108.0947 0000904 114.0100 246.1222 15.05651160 26134
STARLINK-34540          
1 65657U 25211F   26062.66347560  .00003150  00000+0  22240-3 0  9994
2 65657  97.6027 108.1024 0001664 127.5505 232.5873 15.05650876 26135
STARLINK-35282          
1 65658U 25211G   26062.65793581  .00004490  00000+0  31514-3 0  9994
2 65658  97.6030 108.1096 0001072 100.7164 259.4183 15.05654979 26136
