[{"OBJECT_NAME":"STARLINK-35134","OBJECT_ID":"2025-210V","EPOCH":"2026-03-03T17:47:36.261888","MEAN_MOTION":15.30211989,"ECCENTRICITY":8.107e-5,"INCLINATION":53.1607,"RA_OF_ASC_NODE":334.4765,"ARG_OF_PERICENTER":107.6638,"MEAN_ANOMALY":252.4452,"EPHEMERIS_TYPE":0,"CLASSIFICATION_TYPE":"U","NORAD_CAT_ID":65641,"ELEMENT_SET_NO":999,"REV_AT_EPOCH":2682,"BSTAR":0.0010713306,"MEAN_MOTION_DOT":0.00031517,"MEAN_MOTION_DDOT":0},{"OBJECT_NAME":"STARLINK-35109","OBJECT_ID":"2025-210W","EPOCH":"2026-03-03T17:38:29.165856","MEAN_MOTION":15.30221743,"ECCENTRICITY":0.00013556,"INCLINATION":53.161,"RA_OF_ASC_NODE":334.4349,"ARG_OF_PERICENTER":117.125,"MEAN_ANOMALY":242.9889,"EPHEMERIS_TYPE":0,"CLASSIFICATION_TYPE":"U","NORAD_CAT_ID":65642,"ELEMENT_SET_NO":999,"REV_AT_EPOCH":2682,"BSTAR":0.0011349644,"MEAN_MOTION_DOT":0.00033429,"MEAN_MOTION_DDOT":0},{"OBJECT_NAME":"STARLINK-35062","OBJECT_ID":"2025-210X","EPOCH":"2026-03-03T17:36:59.955264","MEAN_MOTION":15.30181066,"ECCENTRICITY":0.00011043,"INCLINATION":53.1615,"RA_OF_ASC_NODE":334.4286,"ARG_OF_PERICENTER":83.1856,"MEAN_ANOMALY":276.927,"EPHEMERIS_TYPE":0,"CLASSIFICATION_TYPE":"U","NORAD_CAT_ID":65643,"ELEMENT_SET_NO":999,"REV_AT_EPOCH":2682,"BSTAR":0.00087105581,"MEAN_MOTION_DOT":0.00025512,"MEAN_MOTION_DDOT":0},{"OBJECT_NAME":"STARLINK-35141","OBJECT_ID":"2025-210Y","EPOCH":"2026-03-03T17:23:27.037536","MEAN_MOTION":15.30228304,"ECCENTRICITY":0.00010673,"INCLINATION":53.1599,"RA_OF_ASC_NODE":335.0786,"ARG_OF_PERICENTER":108.0362,"MEAN_ANOMALY":252.0756,"EPHEMERIS_TYPE":0,"CLASSIFICATION_TYPE":"U","NORAD_CAT_ID":65644,"ELEMENT_SET_NO":999,"REV_AT_EPOCH":2681,"BSTAR":0.0011125607,"MEAN_MOTION_DOT":0.00032766,"MEAN_MOTION_DDOT":0},{"OBJECT_NAME":"STARLINK-35237","OBJECT_ID":"2025-210Z","EPOCH":"2026-03-03T17:28:01.017984","MEAN_MOTION":15.30212636,"ECCENTRICITY":0.00013465,"INCLINATION":53.1599,"RA_OF_ASC_NODE":335.0993,"ARG_OF_PERICENTER":93.7282,"MEAN_ANOMALY":266.3872,"EPHEMERIS_TYPE":0,"CLASSIFICATION_TYPE":"U","NORAD_CAT_ID":65645,"ELEMENT_SET_NO":999,"REV_AT_EPOCH":2681,"BSTAR":0.0011126381,"MEAN_MOTION_DOT":0.00032752,"MEAN_MOTION_DDOT":0},{"OBJECT_NAME":"STARLINK-35183","OBJECT_ID":"2025-210AA","EPOCH":"2026-03-03T18:48:23.251680","MEAN_MOTION":15.30223807,"ECCENTRICITY":0.00012225,"INCLINATION":53.1604,"RA_OF_ASC_NODE":334.7354,"ARG_OF_PERICENTER":97.1097,"MEAN_ANOMALY":263.0043,"EPHEMERIS_TYPE":0,"CLASSIFICATION_TYPE":"U","NORAD_CAT_ID":65646,"ELEMENT_SET_NO":999,"REV_AT_EPOCH":2682,"BSTAR":0.0011463195,"MEAN_MOTION_DOT":0.00033771,"MEAN_MOTION_DDOT":0},{"OBJECT_NAME":"STARLINK-35202","OBJECT_ID":"2025-210AB","EPOCH":"2026-03-03T01:26:12.427584","MEAN_MOTION":15.30209755,"ECCENTRICITY":7.527e-5,"INCLINATION":53.1605,"RA_OF_ASC_NODE":338.037,"ARG_OF_PERICENTER":111.236,"MEAN_ANOMALY":248.8721,"EPHEMERIS_TYPE":0,"CLASSIFICATION_TYPE":"U","NORAD_CAT_ID":65647,"ELEMENT_SET_NO":999,"REV_AT_EPOCH":2671,"BSTAR":0.00087132253,"MEAN_MOTION_DOT":0.00025543,"MEAN_MOTION_DDOT":0},{"OBJECT_NAME":"STARLINK-34868","OBJECT_ID":"2025-210AC","EPOCH":"2026-03-03T18:28:38.143488","MEAN_MOTION":15.3022673,"ECCENTRICITY":0.0001068,"INCLINATION":53.1606,"RA_OF_ASC_NODE":334.6465,"ARG_OF_PERICENTER":85.9954,"MEAN_ANOMALY":274.1169,"EPHEMERIS_TYPE":0,"CLASSIFICATION_TYPE":"U","NORAD_CAT_ID":65648,"ELEMENT_SET_NO":999,"REV_AT_EPOCH":2682,"BSTAR":0.0013893657,"MEAN_MOTION_DOT":0.00041051,"MEAN_MOTION_DDOT":0},{"OBJECT_NAME":"STARLINK-35079","OBJECT_ID":"2025-210AD","EPOCH":"2026-03-03T04:31:17.758272","MEAN_MOTION":15.30160499,"ECCENTRICITY":0.00019361,"INCLINATION":53.1605,"RA_OF_ASC_NODE":337.4176,"ARG_OF_PERICENTER":26.4906,"MEAN_ANOMALY":333.6193,"EPHEMERIS_TYPE":0,"CLASSIFICATION_TYPE":"U","NORAD_CAT_ID":65649,"ELEMENT_SET_NO":999,"REV_AT_EPOCH":2673,"BSTAR":0.0012368305,"MEAN_MOTION_DOT":0.00036408,"MEAN_MOTION_DDOT":0},{"OBJECT_NAME":"STARLINK-35328","OBJECT_ID":"2025-211A","EPOCH":"2026-03-03T16:15:21.608352","MEAN_MOTION":15.05665482,"ECCENTRICITY":5.592e-5,"INCLINATION":97.6024,"RA_OF_ASC_NODE":108.0818,"ARG_OF_PERICENTER":77.0606,"MEAN_ANOMALY":283.0683,"EPHEMERIS_TYPE":0,"CLASSIFICATION_TYPE":"U","NORAD_CAT_ID":65652,"ELEMENT_SET_NO":999,"REV_AT_EPOCH":2613,"BSTAR":0.0018161228,"MEAN_MOTION_DOT":0.00026252,"MEAN_MOTION_DDOT":0},{"OBJECT_NAME":"STARLINK-34210","OBJECT_ID":"2025-211B","EPOCH":"2026-03-03T16:07:21.615744","MEAN_MOTION":15.05652234,"ECCENTRICITY":8.356e-5,"INCLINATION":97.6025,"RA_OF_ASC_NODE":108.0901,"ARG_OF_PERICENTER":92.2072,"MEAN_ANOMALY":267.9251,"EPHEMERIS_TYPE":0,"CLASSIFICATION_TYPE":"U","NORAD_CAT_ID":65653,"ELEMENT_SET_NO":999,"REV_AT_EPOCH":2613,"BSTAR":0.00016472242,"MEAN_MOTION_DOT":2.317e-5,"MEAN_MOTION_DDOT":0},{"OBJECT_NAME":"STARLINK-35227","OBJECT_ID":"2025-211C","EPOCH":"2026-03-03T15:59:25.015200","MEAN_MOTION":15.05653127,"ECCENTRICITY":0.0001037,"INCLINATION":97.6024,"RA_OF_ASC_NODE":108.0985,"ARG_OF_PERICENTER":96.2018,"MEAN_ANOMALY":263.9327,"EPHEMERIS_TYPE":0,"CLASSIFICATION_TYPE":"U","NORAD_CAT_ID":65654,"ELEMENT_SET_NO":999,"REV_AT_EPOCH":2613,"BSTAR":0.00067262562,"MEAN_MOTION_DOT":9.659e-5,"MEAN_MOTION_DDOT":0},{"OBJECT_NAME":"STARLINK-35240","OBJECT_ID":"2025-211D","EPOCH":"2026-03-03T20:58:27.012000","MEAN_MOTION":15.05652538,"ECCENTRICITY":8.949e-5,"INCLINATION":97.6025,"RA_OF_ASC_NODE":108.283,"ARG_OF_PERICENTER":84.7146,"MEAN_ANOMALY":275.4183,"EPHEMERIS_TYPE":0,"CLASSIFICATION_TYPE":"U","NORAD_CAT_ID":65655,"ELEMENT_SET_NO":999,"REV_AT_EPOCH":2616,"BSTAR":0.00064607441,"MEAN_MOTION_DOT":9.274e-5,"MEAN_MOTION_DDOT":0},{"OBJECT_NAME":"STARLINK-35344","OBJECT_ID":"2025-211E","EPOCH":"2026-03-03T16:03:22.386240","MEAN_MOTION":15.0565116,"ECCENTRICITY":9.047e-5,"INCLINATION":97.602,"RA_OF_ASC_NODE":108.0947,"ARG_OF_PERICENTER":114.01,"MEAN_ANOMALY":246.1222,"EPHEMERIS_TYPE":0,"CLASSIFICATION_TYPE":"U","NORAD_CAT_ID":65656,"ELEMENT_SET_NO":999,"REV_AT_EPOCH":2613,"BSTAR":0.00014136604,"MEAN_MOTION_DOT":1.98e-5,"MEAN_MOTION_DDOT":0},{"OBJECT_NAME":"STARLINK-34540","OBJECT_ID":"2025-211F","EPOCH":"2026-03-03T15:55:24.291840","MEAN_MOTION":15.05650876,"ECCENTRICITY":0.00016641,"INCLINATION":97.6027,"RA_OF_ASC_NODE":108.1024,"ARG_OF_PERICENTER":127.5505,"MEAN_ANOMALY":232.5873,"EPHEMERIS_TYPE":0,"CLASSIFICATION_TYPE":"U","NORAD_CAT_ID":65657,"ELEMENT_SET_NO":999,"REV_AT_EPOCH":2613,"BSTAR":0.00022239879,"MEAN_MOTION_DOT":3.15e-5,"MEAN_MOTION_DDOT":0},{"OBJECT_NAME":"STARLINK-35282","OBJECT_ID":"2025-211G","EPOCH":"2026-03-03T15:47:25.653984","MEAN_MOTION":15.05654979,"ECCENTRICITY":0.00010723,"INCLINATION":97.603,"RA_OF_ASC_NODE":108.1096,"ARG_OF_PERICENTER":100.7164,"MEAN_ANOMALY":259.4183,"EPHEMERIS_TYPE":0,"CLASSIFICATION_TYPE":"U","NORAD_CAT_ID":65658,"ELEMENT_SET_NO":999,"REV_AT_EPOCH":2613,"BSTAR":0.00031514457,"MEAN_MOTION_DOT":4.49e-5,"MEAN_MOTION_DDOT":0}]
